     2.100          NAVIGATION                              RINEX VERSION / TYPE
fic2rin                                 12/21/2015 00:05:15 PGM / RUN BY / DATE
                                                            END OF HEADER
17 15 12 20  4  0  0.0 -.196999404579D-03 -.909494701773D-12  .000000000000D+00
     .540000000000D+02  .831250000000D+01  .432125142604D-08  .548815063322D+00
     .517815351486D-06  .108103444800D-01  .911206007004D-05  .515361028099D+04
     .144000000000D+05 -.875443220139D-07 -.409097051871D+00  .428408384323D-07
     .974985413702D+00  .214500000000D+03 -.198069668454D+01 -.816355433052D-08
     .296798077117D-09  .100000000000D+01  .187600000000D+04  .000000000000D+00
     .240000000000D+01  .000000000000D+00 -.107102096081D-07  .540000000000D+02
     .720600000000D+04  .400000000000D+01
18 15 12 20  4  0  0.0  .464456621557D-03  .386535248253D-11  .000000000000D+00
     .800000000000D+02 -.259375000000D+02  .513199948266D-08  .209252596073D+01
    -.148080289364D-05  .164248376386D-01  .100061297417D-04  .515365343666D+04
     .144000000000D+05  .670552253723D-07  .161288225337D+01 -.363215804100D-06
     .924566309292D+00  .165656250000D+03 -.192471352921D+01 -.816855453880D-08
    -.181078971237D-09  .100000000000D+01  .187600000000D+04  .000000000000D+00
     .240000000000D+01  .000000000000D+00 -.111758708954D-07  .800000000000D+02
     .720600000000D+04  .400000000000D+01
19 15 12 20  4  0  0.0 -.523881521076D-03 -.341060513165D-12  .000000000000D+00
     .720000000000D+02  .878125000000D+01  .430696511667D-08 -.181288519952D+01
     .396743416786D-06  .113090709783D-01  .846013426781D-05  .515518037987D+04
     .144000000000D+05  .152736902237D-06 -.360009236561D+00 -.108033418655D-06
     .972069499054D+00  .220062500000D+03  .665387463716D+00 -.788104256277D-08
     .510378402166D-09  .100000000000D+01  .187600000000D+04  .000000000000D+00
     .240000000000D+01  .000000000000D+00 -.149011611938D-07  .720000000000D+02
     .720600000000D+04  .400000000000D+01
20 15 12 20  4  0  0.0  .379630364478D-03  .272848410532D-11  .000000000000D+00
     .680000000000D+02 -.350312500000D+02  .522771775543D-08 -.184447490978D+00
    -.168383121490D-05  .502491870429D-02  .995956361294D-05  .515367425537D+04
     .144000000000D+05 -.111758708954D-06  .156082128675D+01  .121071934700D-06
     .925792679370D+00  .170093750000D+03  .129992871603D+01 -.839249243814D-08
    -.200722646618D-09  .100000000000D+01  .187600000000D+04  .000000000000D+00
     .240000000000D+01  .000000000000D+00 -.838190317154D-08  .680000000000D+02
     .720600000000D+04  .400000000000D+01
21 15 12 20  4  0  0.0 -.500509049743D-03 -.216004991671D-11  .000000000000D+00
     .120000000000D+02 -.355312500000D+02  .523843248745D-08  .299236118639D+01
    -.195205211639D-05  .228076335043D-01  .523403286934D-05  .515370195580D+04
     .144000000000D+05  .251457095146D-06  .570142019972D+00 -.264495611191D-06
     .935253838722D+00  .260656250000D+03 -.185190216974D+01 -.815426822943D-08
    -.453590322429D-10  .100000000000D+01  .187600000000D+04  .000000000000D+00
     .240000000000D+01  .000000000000D+00 -.116415321827D-07  .120000000000D+02
     .720600000000D+04  .400000000000D+01
22 15 12 20  4  0  0.0  .419178046286D-03 -.261479726760D-11  .000000000000D+00
     .510000000000D+02 -.188437500000D+02  .536272337895D-08  .148963650639D+01
    -.100955367088D-05  .748634920456D-02  .102855265141D-04  .515511406898D+04
     .144000000000D+05 -.162050127983D-06  .161369047904D+01 -.596046447754D-07
     .922406265398D+00  .162468750000D+03 -.203030690643D+01 -.844463746733D-08
    -.247510309798D-09  .100000000000D+01  .187600000000D+04  .000000000000D+00
     .240000000000D+01  .000000000000D+00 -.176951289177D-07  .510000000000D+02
     .720600000000D+04  .400000000000D+01
23 15 12 20  4  0  0.0 -.150620006025D-03 -.193267624127D-11  .000000000000D+00
     .910000000000D+02  .955000000000D+02  .487234580990D-08 -.705325143372D+00
     .508688390255D-05  .104058898287D-01  .830367207527D-05  .515375867844D+04
     .144000000000D+05  .230967998505D-06  .268805846881D+01  .130385160446D-06
     .947181125393D+00  .210625000000D+03 -.262006901607D+01 -.840927885165D-08
     .254296306748D-09  .100000000000D+01  .187600000000D+04  .000000000000D+00
     .240000000000D+01  .000000000000D+00 -.200234353542D-07  .910000000000D+02
     .720600000000D+04  .400000000000D+01
24 15 12 20  4  0  0.0 -.955397263169D-05 -.454747350886D-12  .000000000000D+00
     .340000000000D+02  .142812500000D+02  .507342561426D-08 -.131864321990D+01
     .622123479843D-06  .394275144208D-02  .329688191414D-05  .515363939667D+04
     .144000000000D+05  .391155481339D-07 -.256912532094D+01 -.745058059692D-07
     .951437589412D+00  .310656250000D+03  .313221200155D+00 -.852535511526D-08
     .642883921553D-11  .100000000000D+01  .187600000000D+04  .000000000000D+00
     .240000000000D+01  .000000000000D+00  .279396772385D-08  .340000000000D+02
     .720600000000D+04  .400000000000D+01
25 15 12 20  4  0  0.0 -.856732949615D-04 -.613908923697D-11  .000000000000D+00
     .650000000000D+02 -.491562500000D+02  .400302388487D-08  .296056516665D+01
    -.261329114437D-05  .483284890652D-02  .865012407303D-05  .515358929062D+04
     .144000000000D+05 -.558793544769D-07 -.150062957358D+01 -.596046447754D-07
     .978417343444D+00  .221937500000D+03  .698199415700D+00 -.782068290569D-08
    -.150720563831D-09  .100000000000D+01  .187600000000D+04  .000000000000D+00
     .240000000000D+01  .000000000000D+00  .558793544769D-08  .650000000000D+02
     .720600000000D+04  .400000000000D+01
26 15 12 20  4  0  0.0 -.173375941813D-03 -.173940861714D-10  .000000000000D+00
     .780000000000D+02 -.440312500000D+02  .457626204825D-08  .264010864577D+01
    -.223889946938D-05  .566418515518D-03  .848807394505D-05  .515368414688D+04
     .144000000000D+05 -.149011611938D-07 -.150681717724D+01  .670552253723D-07
     .960463820293D+00  .216093750000D+03 -.317490647571D+00 -.813641034272D-08
    -.143220251413D-09  .100000000000D+01  .187600000000D+04  .000000000000D+00
     .240000000000D+01  .000000000000D+00  .745058059692D-08  .780000000000D+02
     .720600000000D+04  .400000000000D+01
27 15 12 20  4  0  0.0  .458830036223D-04  .329691829393D-11  .000000000000D+00
     .400000000000D+02  .100937500000D+02  .439554023475D-08  .529850846643D+00
     .519677996635D-06  .288747355808D-02  .831112265587D-05  .515371343422D+04
     .144000000000D+05  .856816768646D-07 -.458063202137D+00  .540167093277D-07
     .969902187382D+00  .220843750000D+03  .245848278145D+00 -.808819404860D-08
     .320727645308D-09  .100000000000D+01  .187600000000D+04  .000000000000D+00
     .240000000000D+01  .000000000000D+00  .186264514923D-08  .400000000000D+02
     .720600000000D+04  .400000000000D+01
28 15 12 20  4  0  0.0  .489500351250D-03  .261479726760D-11  .000000000000D+00
     .970000000000D+02 -.724375000000D+02  .381765902082D-08  .129946781491D+01
    -.398606061935D-05  .200353743276D-01  .996328890324D-05  .515370948982D+04
     .144000000000D+05 -.268220901489D-06 -.142769391874D+01 -.402331352234D-06
     .989266774018D+00  .208968750000D+03 -.163822784306D+01 -.796676041898D-08
    -.162506769059D-09  .100000000000D+01  .187600000000D+04  .000000000000D+00
     .340000000000D+01  .000000000000D+00 -.111758708954D-07  .970000000000D+02
     .720600000000D+04  .400000000000D+01
29 15 12 20  4  0  0.0  .648928806186D-03  .136424205266D-11  .000000000000D+00
     .300000000000D+02  .396875000000D+01  .414302971667D-08  .310851830677D+01
     .150874257088D-06  .924717634916D-03  .837631523609D-05  .515364649773D+04
     .144000000000D+05 -.745058059692D-07 -.399537280137D+00  .204890966415D-07
     .975902474621D+00  .224812500000D+03 -.583428268301D+00 -.789961476495D-08
     .316798910232D-09  .100000000000D+01  .187600000000D+04  .000000000000D+00
     .240000000000D+01  .000000000000D+00 -.102445483208D-07  .300000000000D+02
     .720600000000D+04  .400000000000D+01
30 15 12 20  4  0  0.0  .733267515898D-04  .511590769747D-11  .000000000000D+00
     .830000000000D+02  .218750000000D+00  .507235414105D-08 -.233437815819D+01
    -.745058059692D-08  .164467724971D-02  .365078449249D-05  .515365704918D+04
     .144000000000D+05 -.111758708954D-07 -.247829870757D+01  .111758708954D-07
     .954043068455D+00  .309500000000D+03  .312183665006D+01 -.855892794227D-08
    -.112147528538D-09  .100000000000D+01  .187600000000D+04  .000000000000D+00
     .240000000000D+01  .000000000000D+00  .325962901115D-08  .830000000000D+02
     .720600000000D+04  .400000000000D+01
31 15 12 20  4  0  0.0  .290550757200D-03 -.159161572810D-11  .000000000000D+00
     .860000000000D+02  .465625000000D+01  .456947605130D-08 -.230728223529D+01
     .357627868652D-06  .833825988229D-02  .438652932644D-05  .515365830994D+04
     .144000000000D+05 -.217929482460D-06 -.251606249388D+01  .316649675369D-07
     .973133779271D+00  .304593750000D+03 -.476359936109D+00 -.820355599675D-08
    -.107861635727D-09  .100000000000D+01  .187600000000D+04  .000000000000D+00
     .240000000000D+01  .000000000000D+00 -.135041773319D-07  .860000000000D+02
     .720600000000D+04  .400000000000D+01
32 15 12 20  4  0  0.0  .534895807505D-04  .120508047985D-10  .000000000000D+00
     .610000000000D+02 -.650000000000D+01  .466626579727D-08 -.189828342276D+01
    -.447034835815D-06  .113584876526D-01  .114608556032D-04  .515364622688D+04
     .144000000000D+05  .167638063431D-07  .171954575078D+01 -.163912773132D-06
     .946421854818D+00  .150093750000D+03  .198517598609D+00 -.802819154926D-08
    -.932181686252D-10  .100000000000D+01  .187600000000D+04  .000000000000D+00
     .240000000000D+01  .000000000000D+00 -.325962901115D-08  .610000000000D+02
     .720600000000D+04  .400000000000D+01
